ONEWEB-0365             
1 49291U 21090N   26185.01803888 -.00000014  00000+0 -67304-4 0  9995
2 49291  87.9191 301.6152 0001975 102.8963 257.2390 13.19725744228644
ONEWEB-0366             
1 49292U 21090P   26185.25792203  .00000152  00000+0  37541-3 0  9990
2 49292  87.8972 286.3051 0001988  99.4081 260.7274 13.14501736229801
ONEWEB-0367             
1 49293U 21090Q   26185.20844492  .00000078  00000+0  16014-3 0  9993
2 49293  87.9196 271.0492 0002130 104.2941 255.8429 13.20772653232076
ONEWEB-0368             
1 49294U 21090R   26184.95508150  .00000086  00000+0  17906-3 0  9993
2 49294  87.9184 271.1083 0001351 106.9580 253.1702 13.20770922233199
ONEWEB-0369             
1 49295U 21090S   26185.08911841 -.00000040  00000+0 -13265-3 0  9990
2 49295  87.9181 301.6074 0001872 102.2517 257.8826 13.19725652228643
ONEWEB-0370             
1 49296U 21090T   26185.21770273  .00000001  00000+0 -28664-4 0  9994
2 49296  87.9195 271.0468 0002303  98.7788 261.3606 13.20771488232118
ONEWEB-0371             
1 49297U 21090U   26185.02118704  .00000132  00000+0  29624-3 0  9999
2 49297  87.9189 301.6144 0001988 102.5180 257.6176 13.19724838228672
ONEWEB-0372             
1 49298U 21090V   26185.20745078  .00000052  00000+0  96573-4 0  9999
2 49298  87.9194 271.0507 0002002 100.1515 259.9845 13.20773109232081
ONEWEB-0373             
1 49299U 21090W   26184.77830768  .00000047  00000+0  84814-4 0  9991
2 49299  87.9192 271.1359 0002081  97.7886 262.3484 13.20772364233210
ONEWEB-0374             
1 49300U 21090X   26185.24522688  .00000018  00000+0  14674-4 0  9991
2 49300  87.8975 286.2993 0001831  83.6801 276.4537 13.14502735229806
ONEWEB-0375             
1 49301U 21090Y   26184.99379758 -.00000088  00000+0 -24902-3 0  9994
2 49301  87.9194 271.0849 0001959  84.2594 275.8763 13.20771351232740
ONEWEB-0376             
1 49302U 21090Z   26185.01961190 -.00000050  00000+0 -15629-3 0  9991
2 49302  87.9191 301.6146 0001897 105.9743 254.1599 13.19726037228679
ONEWEB-0377             
1 49303U 21090AA  26185.20774128  .00000657  00000+0  15830-2 0  9990
2 49303  87.9197 271.0447 0002000  93.2841 266.8521 13.20769192232766
ONEWEB-0378             
1 49304U 21090AB  26185.00067453 -.00000016  00000+0 -71396-4 0  9997
2 49304  87.9190 271.0899 0001950  97.1647 262.9709 13.20771112232008
ONEWEB-0379             
1 49305U 21090AC  26185.01211788 -.00000222  00000+0 -63240-3 0  9998
2 49305  87.8973 286.3558 0001917  98.1516 261.9831 13.14501210229775
ONEWEB-0380             
1 49306U 21090AD  26185.01646295  .00000010  00000+0 -64647-5 0  9992
2 49306  87.9182 301.6193 0002049  95.4028 264.7339 13.19725747228647
ONEWEB-0381             
1 49307U 21090AE  26185.20422280  .00000038  00000+0  61907-4 0  9994
2 49307  87.9194 271.0501 0001896  92.0173 268.1178 13.20772879232078
ONEWEB-0382             
1 49308U 21090AF  26185.19076716  .00000107  00000+0  23220-3 0  9994
2 49308  87.9192 271.0467 0001821  93.4534 266.6807 13.20771541232068
ONEWEB-0383             
1 49309U 21090AG  26185.23413053 -.00000107  00000+0 -32194-3 0  9991
2 49309  87.8978 286.3034 0001835  99.0889 261.0448 13.14502874229834
ONEWEB-0384             
1 49310U 21090AH  26185.17887111  .00000131  00000+0  29047-3 0  9994
2 49310  87.9194 271.0926 0001638  91.4548 268.6773 13.20813247232077
ONEWEB-0385             
1 49311U 21090AJ  26185.18401246  .00000171  00000+0  38940-3 0  9993
2 49311  87.9192 271.0535 0001892  95.0527 265.0823 13.20773563232041
ONEWEB-0386             
1 49312U 21090AK  26185.20086075  .00000120  00000+0  26270-3 0  9993
2 49312  87.9198 271.0416 0001832  95.4570 264.6772 13.20772773232064
ONEWEB-0387             
1 49313U 21090AL  26184.95842988  .00000055  00000+0  10214-3 0  9996
2 49313  87.9185 271.1100 0002188  90.2156 269.9229 13.20772992232035
ONEWEB-0388             
1 49314U 21090AM  26185.08753911 -.00000033  00000+0 -11454-3 0  9994
2 49314  87.9185 301.6035 0001830  97.2662 262.8678 13.19725910228642
ONEWEB-0389             
1 50469U 21132A   26185.20841742 -.00000005  00000+0 -46940-4 0  9996
2 50469  87.9135   2.4814 0001920  79.7380 280.3968 13.17649898220325
ONEWEB-0390             
1 50470U 21132B   26185.21010483  .00000038  00000+0  64651-4 0  9992
2 50470  87.9133   2.4820 0002112  92.1152 268.0221 13.17650161220322
ONEWEB-0391             
1 50471U 21132C   26185.21179292  .00000013  00000+0 -96912-6 0  9998
2 50471  87.9137   2.4915 0002393  73.2878 286.8516 13.17649688220325
ONEWEB-0392             
1 50472U 21132D   26185.24217247  .00000000  00000+0 -32045-4 0  9996
2 50472  87.9144   2.4550 0001987  79.7275 280.4080 13.17649819220365
ONEWEB-0393             
1 50473U 21132E   26184.91394343 -.00000163  00000+0 -45414-3 0  9997
2 50473  87.9136   2.5362 0001904  85.2182 274.9167 13.17648929220317
ONEWEB-0394             
1 50474U 21132F   26185.17030802 -.00000091  00000+0 -26250-3 0  9991
2 50474  87.9187 332.0641 0001681  93.1894 266.9430 13.18686901223832
