OBJECT_NAME,OBJECT_ID,EPOCH,MEAN_MOTION,ECCENTRICITY,INCLINATION,RA_OF_ASC_NODE,ARG_OF_PERICENTER,MEAN_ANOMALY,EPHEMERIS_TYPE,CLASSIFICATION_TYPE,NORAD_CAT_ID,ELEMENT_SET_NO,REV_AT_EPOCH,BSTAR,MEAN_MOTION_DOT,MEAN_MOTION_DDOT
ONEWEB-0365,2021-090N,2026-07-04T00:25:58.559232,13.19725744,.00019759,87.9191,301.6152,102.8963,257.2390,0,U,49291,999,22864,-.67304399E-4,-.14E-6,0
ONEWEB-0366,2021-090P,2026-07-04T06:11:24.463392,13.14501736,.0001988,87.8972,286.3051,99.4081,260.7274,0,U,49292,999,22980,.37540886E-3,.152E-5,0
ONEWEB-0367,2021-090Q,2026-07-04T05:00:09.641088,13.20772653,.00021304,87.9196,271.0492,104.2941,255.8429,0,U,49293,999,23207,.16013541E-3,.78E-6,0
ONEWEB-0368,2021-090R,2026-07-03T22:55:19.041600,13.20770922,.00013512,87.9184,271.1083,106.9580,253.1702,0,U,49294,999,23319,.17905796E-3,.86E-6,0
ONEWEB-0369,2021-090S,2026-07-04T02:08:19.830624,13.19725652,.00018729,87.9181,301.6074,102.2517,257.8826,0,U,49295,999,22864,-.13265084E-3,-.4E-6,0
ONEWEB-0370,2021-090T,2026-07-04T05:13:29.515872,13.20771488,.00023031,87.9195,271.0468,98.7788,261.3606,0,U,49296,999,23211,-.28664154E-4,.1E-7,0
ONEWEB-0371,2021-090U,2026-07-04T00:30:30.560256,13.19724838,.00019885,87.9189,301.6144,102.5180,257.6176,0,U,49297,999,22867,.29624059E-3,.132E-5,0
ONEWEB-0372,2021-090V,2026-07-04T04:58:43.747392,13.20773109,.00020029,87.9194,271.0507,100.1515,259.9845,0,U,49298,999,23208,.96573223E-4,.52E-6,0
ONEWEB-0373,2021-090W,2026-07-03T18:40:45.783552,13.20772364,.00020812,87.9192,271.1359,97.7886,262.3484,0,U,49299,999,23321,.84814269E-4,.47E-6,0
ONEWEB-0374,2021-090X,2026-07-04T05:53:07.602432,13.14502735,.00018315,87.8975,286.2993,83.6801,276.4537,0,U,49300,999,22980,.14673865E-4,.18E-6,0
ONEWEB-0375,2021-090Y,2026-07-03T23:51:04.110912,13.20771351,.00019595,87.9194,271.0849,84.2594,275.8763,0,U,49301,999,23274,-.2490226E-3,-.88E-6,0
ONEWEB-0376,2021-090Z,2026-07-04T00:28:14.468160,13.19726037,.00018972,87.9191,301.6146,105.9743,254.1599,0,U,49302,999,22867,-.15629282E-3,-.5E-6,0
ONEWEB-0377,2021-090AA,2026-07-04T04:59:08.846592,13.20769192,.00020006,87.9197,271.0447,93.2841,266.8521,0,U,49303,999,23276,.15829571E-2,.657E-5,0
ONEWEB-0378,2021-090AB,2026-07-04T00:00:58.279392,13.20771112,.00019507,87.9190,271.0899,97.1647,262.9709,0,U,49304,999,23200,-.71396259E-4,-.16E-6,0
ONEWEB-0379,2021-090AC,2026-07-04T00:17:26.984832,13.14501210,.00019177,87.8973,286.3558,98.1516,261.9831,0,U,49305,999,22977,-.63239736E-3,-.222E-5,0
ONEWEB-0380,2021-090AD,2026-07-04T00:23:42.398880,13.19725747,.00020492,87.9182,301.6193,95.4028,264.7339,0,U,49306,999,22864,-.6464659E-5,.1E-6,0
ONEWEB-0381,2021-090AE,2026-07-04T04:54:04.849920,13.20772879,.00018961,87.9194,271.0501,92.0173,268.1178,0,U,49307,999,23207,.61907448E-4,.38E-6,0
ONEWEB-0382,2021-090AF,2026-07-04T04:34:42.282624,13.20771541,.00018219,87.9192,271.0467,93.4534,266.6807,0,U,49308,999,23206,.23219556E-3,.107E-5,0
ONEWEB-0383,2021-090AG,2026-07-04T05:37:08.877792,13.14502874,.00018354,87.8978,286.3034,99.0889,261.0448,0,U,49309,999,22983,-.32193742E-3,-.107E-5,0
ONEWEB-0384,2021-090AH,2026-07-04T04:17:34.463904,13.20813247,.00016383,87.9194,271.0926,91.4548,268.6773,0,U,49310,999,23207,.29046963E-3,.131E-5,0
ONEWEB-0385,2021-090AJ,2026-07-04T04:24:58.676544,13.20773563,.00018929,87.9192,271.0535,95.0527,265.0823,0,U,49311,999,23204,.38940463E-3,.171E-5,0
ONEWEB-0386,2021-090AK,2026-07-04T04:49:14.368800,13.20772773,.00018321,87.9198,271.0416,95.4570,264.6772,0,U,49312,999,23206,.26270311E-3,.12E-5,0
ONEWEB-0387,2021-090AL,2026-07-03T23:00:08.341632,13.20772992,.00021881,87.9185,271.1100,90.2156,269.9229,0,U,49313,999,23203,.10213992E-3,.55E-6,0
ONEWEB-0388,2021-090AM,2026-07-04T02:06:03.379104,13.19725910,.000183,87.9185,301.6035,97.2662,262.8678,0,U,49314,999,22864,-.11453895E-3,-.33E-6,0
ONEWEB-0389,2021-132A,2026-07-04T05:00:07.265088,13.17649898,.00019204,87.9135,2.4814,79.7380,280.3968,0,U,50469,999,22032,-.46940488E-4,-.5E-7,0
ONEWEB-0390,2021-132B,2026-07-04T05:02:33.057312,13.17650161,.00021126,87.9133,2.4820,92.1152,268.0221,0,U,50470,999,22032,.64651353E-4,.38E-6,0
ONEWEB-0391,2021-132C,2026-07-04T05:04:58.908288,13.17649688,.00023934,87.9137,2.4915,73.2878,286.8516,0,U,50471,999,22032,-.969119E-6,.13E-6,0
ONEWEB-0392,2021-132D,2026-07-04T05:48:43.701408,13.17649819,.00019879,87.9144,2.4550,79.7275,280.4080,0,U,50472,999,22036,-.3204469E-4,0,0
ONEWEB-0393,2021-132E,2026-07-03T21:56:04.712352,13.17648929,.0001904,87.9136,2.5362,85.2182,274.9167,0,U,50473,999,22031,-.45413574E-3,-.163E-5,0
ONEWEB-0394,2021-132F,2026-07-04T04:05:14.612928,13.18686901,.00016819,87.9187,332.0641,93.1894,266.9430,0,U,50474,999,22383,-.26249928E-3,-.91E-6,0
